JILIN-01 KUANFU 01      
1 45016U 20003A   20252.16119630  .00000567  00000-0  23856-4 0  9995
2 45016  97.3096 316.6131 0013498 144.2441 215.9705 15.27312812 36176
NUSAT-7 (SOPHIE)        
1 45017U 20003B   20252.16016559  .00000986  00000-0  37532-4 0  9993
2 45017  97.3018 316.8241 0015758 145.3549 214.8721 15.29002330 36198
NUSAT-8 (MARIE)         
1 45018U 20003C   20252.14436747  .00000856  00000-0  34455-4 0  9994
2 45018  97.3114 316.6863 0013243 145.4494 214.7609 15.27475187 36175
TIANQI-5                
1 45019U 20003D   20252.16480274  .00000758  00000-0  30574-4 0  9990
2 45019  97.3095 316.7551 0014260 149.6242 210.5827 15.27741233 36181
YINHE-1                 
1 45024U 20004A   20252.10744948  .00000122  00000-0  14213-4 0  9999
2 45024  86.4007 338.8719 0015027 150.5084 209.6993 14.75246804 34869
GSAT-30                 
1 45026U 20005A   20251.84575337 -.00000168  00000-0  00000-0 0  9992
2 45026   0.0427 319.0681 0003823 139.0292 276.7384  1.00273562  2377
EUTELSAT KONNECT        
1 45027U 20005B   20251.89166097  .00000047  00000-0  00000-0 0  9992
2 45027   0.0218 110.2545 0000484  76.3148 129.0630  1.00274067  3207
STPSAT-4                
1 45043U 98067QY  20251.63262384  .00002436  00000-0  49920-4 0  9993
2 45043  51.6419 299.5486 0005370 318.0789  41.9789 15.50444055 34578
STARLINK-1132           
1 45044U 20006A   20251.91667824  .00032081  00000-0  22123-2 0  9994
2 45044  52.9984 284.3457 0000737  94.5865 209.9072 15.05556887 34313
STARLINK-1120           
1 45045U 20006B   20251.91667824  .00001261  00000-0  10576-3 0  9991
2 45045  52.9989 304.3499 0001130 118.8114 183.4143 15.05562646  1761
STARLINK-1129           
1 45046U 20006C   20251.91667824  .00055009  00000-0  37666-2 0  9999
2 45046  52.9985 304.3512 0000844 109.7266 138.3970 15.05566501  1763
STARLINK-1131           
1 45047U 20006D   20251.91667824  .00037888  00000-0  26097-2 0  9991
2 45047  52.9989 304.3490 0001215 100.5953 183.7221 15.05520488 34042
STARLINK-1134           
1 45048U 20006E   20251.91667824  .00037520  00000-0  25811-2 0  9998
2 45048  52.9973 304.3485 0001030 114.5165 115.6090 15.05572513  1762
STARLINK-1135           
1 45049U 20006F   20251.91667824 -.00008403  00000-0 -55744-3 0  9998
2 45049  52.9995 304.3530 0000776 130.1912  82.0374 15.05631804 34046
STARLINK-1140           
1 45050U 20006G   20251.91667824  .00002162  00000-0  16756-3 0  9994
2 45050  52.9982 304.3481 0000983 114.6632  61.6198 15.05560562  1767
STARLINK-1141           
1 45051U 20006H   20251.91667824  .00001869  00000-0  14735-3 0  9993
2 45051  52.9985 304.3495 0000894 111.1113  83.1677 15.05584986  1760
STARLINK-1148           
1 45052U 20006J   20251.91667824  .00002452  00000-0  18739-3 0  9991
2 45052  52.9990 304.3495 0000810 111.5540  28.5885 15.05578689  1760
STARLINK-1155           
1 45053U 20006K   20251.91667824  .00047468  00000-0  32566-2 0  9991
2 45053  53.0001 304.3521 0001187 101.0832 291.0561 15.05563660 34040
STARLINK-1156           
1 45054U 20006L   20251.91667824  .00002293  00000-0  17647-3 0  9993
2 45054  52.9995 304.3513 0000869 102.4025  55.7316 15.05578105  1763
STARLINK-1157           
1 45055U 20006M   20251.91667824  .00078905  13377-4  26922-3 0  9998
2 45055  52.9957 240.9291 0009537  63.8154 202.8864 15.89860127  1789
STARLINK-1158           
1 45056U 20006N   20251.91667824  .00002540  00000-0  19345-3 0  9997
2 45056  52.9994 304.3527 0001087 105.7554  16.4252 15.05570196  1760
STARLINK-1159           
1 45057U 20006P   20251.91667824  .00002309  00000-0  17761-3 0  9991
2 45057  52.9990 304.3470 0001000 111.2840 316.8993 15.05579473  1765
STARLINK-1162           
1 45058U 20006Q   20251.91667824  .00044396  00000-0  30482-2 0  9998
2 45058  52.9991 304.3475 0001008  99.4369   4.7208 15.05565753 34048
STARLINK-1165           
1 45059U 20006R   20251.91667824  .00001573  00000-0  12711-3 0  9995
2 45059  52.9986 304.3489 0001018 107.7451 248.5210 15.05564904  1754
STARLINK-1166           
1 45060U 20006S   20251.91667824  .00001811  00000-0  14343-3 0  9995
2 45060  53.0000 304.3512 0001106 101.2406 272.9781 15.05577336  1767
STARLINK-1169           
1 45061U 20006T   20251.91667824  .00001591  00000-0  12832-3 0  9992
2 45061  52.9986 304.3487 0000894 112.7017 225.5067 15.05583187  1759
STARLINK-1171           
1 45062U 20006U   20251.91667824  .00002100  00000-0  16324-3 0  9990
2 45062  52.9990 304.3483 0001060  98.4420 311.7688 15.05580960  1769
STARLINK-1178           
1 45063U 20006V   20251.91667824  .00049911  00000-0  34219-2 0  9994
2 45063  52.9980 304.3487 0001176 117.8939 202.2205 15.05565092  1760
STARLINK-1133           
1 45064U 20006W   20251.91667824  .00031361  00000-0  21614-2 0  9990
2 45064  53.0003 284.3468 0000979 109.3961 302.9060 15.05589781  1764
STARLINK-1139           
1 45065U 20006X   20251.91667824  .00031877  00000-0  21976-2 0  9994
2 45065  52.9999 284.3488 0000768  89.9659 304.4156 15.05571284 34333
STARLINK-1145           
1 45066U 20006Y   20251.91667824  .00066410  00000-0  45378-2 0  9998
2 45066  52.9982 284.3485 0000998  98.9245  61.4363 15.05551378  1762
STARLINK-1150           
1 45067U 20006Z   20251.91667824  .00029627  00000-0  20447-2 0  9998
2 45067  53.0000 284.3408 0000443  76.9958  11.2990 15.05566886 34320
STARLINK-1161           
1 45068U 20006AA  20251.91667824  .00027677  00000-0  19109-2 0  9995
2 45068  52.9986 284.3510 0000897 111.0219  31.3050 15.05586848 34320
STARLINK-1163           
1 45069U 20006AB  20251.91667824  .00070378  00000-0  48041-2 0  9999
2 45069  52.9998 284.3465 0000847 104.9252  91.3496 15.05558817 34321
STARLINK-1164           
1 45070U 20006AC  20251.91667824  .00066064  00000-0  45128-2 0  9991
2 45070  52.9983 284.3483 0000537 109.3462 122.9219 15.05565116 34329
STARLINK-1167           
1 45071U 20006AD  20251.91667824  .00030839  00000-0  21283-2 0  9999
2 45071  52.9992 284.3502 0000502 104.6042 163.7587 15.05548334  1762
STARLINK-1168           
1 45072U 20006AE  20251.91667824  .00030027  00000-0  20728-2 0  9992
2 45072  52.9979 284.3466 0001009 102.9403 147.4345 15.05552016  1765
STARLINK-1170           
1 45073U 20006AF  20251.91667824  .00071438  00000-0  48749-2 0  9997
2 45073  52.9989 284.3489 0000677  91.2276  15.0226 15.05563227 34322
STARLINK-1172           
1 45074U 20006AG  20251.91667824  .00027440  00000-0  18959-2 0  9992
2 45074  52.9982 284.3497 0000916 106.5451  71.7881 15.05563956 34321
STARLINK-1174           
1 45075U 20006AH  20251.91667824  .00032437  00000-0  22357-2 0  9992
2 45075  52.9997 284.3504 0001043 112.1157 264.2613 15.05571369 34324
STARLINK-1180           
1 45076U 20006AJ  20251.91667824  .00032777  00000-0  22588-2 0  9996
2 45076  52.9985 284.3449 0001026  97.1079 243.2760 15.05571625 34321
STARLINK-1182           
1 45077U 20006AK  20251.91667824  .00028175  00000-0  19459-2 0  9997
2 45077  52.9996 284.3481 0001144 109.9056 104.3836 15.05565301 34323
STARLINK-1177           
1 45078U 20006AL  20251.91667824  .00031574  00000-0  21769-2 0  9992
2 45078  52.9998 284.3492 0000827 109.2147 177.1617 15.05572599 33971
STARLINK-1149           
1 45079U 20006AM  20251.91667824  .00032232  00000-0  22224-2 0  9992
2 45079  52.9961 284.3601 0000835  88.7761 269.5643 15.05559733 33965
STARLINK-1153           
1 45080U 20006AN  20251.91667824 -.00003555  00000-0 -22492-3 0  9990
2 45080  52.9992 284.3478 0000947  93.6313 228.7930 15.05587369 33978
STARLINK-1151           
1 45081U 20006AP  20251.91667824  .00030460  00000-0  21015-2 0  9993
2 45081  53.0004 284.3482 0000670  88.7503 341.5620 15.05565704 34339
STARLINK-1160           
1 45082U 20006AQ  20251.91667824  .00028199  00000-0  19474-2 0  9996
2 45082  52.9986 284.3494 0000753  94.8121  29.5774 15.05568243 34329
STARLINK-1190           
1 45083U 20006AR  20251.91667824  .00001290  00000-0  10770-3 0  9991
2 45083  52.9983 304.3488 0000678 132.5587 133.5823 15.05579210  1764
STARLINK-1173           
1 45084U 20006AS  20251.91667824  .00044390  00000-0  30482-2 0  9991
2 45084  53.0011 264.3442 0000589  78.2139 246.1960 15.05560935  1761
STARLINK-1179           
1 45085U 20006AT  20251.91667824  .00045250  00000-0  31073-2 0  9995
2 45085  52.9987 264.3451 0001210  80.5583 261.8913 15.05550825 34601
STARLINK-1181           
1 45086U 20006AU  20251.52720591  .00000497  00000-0  53154-4 0  9994
2 45086  53.0023 266.0929 0000131 140.1663 219.9335 15.05669916 34207
STARLINK-1185           
1 45087U 20006AV  20251.91667824  .00042839  00000-0  29419-2 0  9998
2 45087  52.9999 264.3452 0001270  85.8943 328.5989 15.05574871  1763
STARLINK-1183           
1 45088U 20006AW  20251.91667824  .00042492  00000-0  29188-2 0  9997
2 45088  52.9993 264.3460 0000837  87.2286 201.2745 15.05569520 34253
STARLINK-1136           
1 45089U 20006AX  20251.91667824  .00041280  00000-0  28377-2 0  9991
2 45089  53.0001 264.3432 0001377  85.7203 184.7870 15.05554328 34262
STARLINK-1176           
1 45090U 20006AY  20251.91667824  .00044733  00000-0  30716-2 0  9999
2 45090  52.9996 264.3467 0001170 101.3588 277.1409 15.05558719 34268
STARLINK-1127           
1 45091U 20006AZ  20251.54819207 -.00005908  00000-0 -38638-3 0  9998
2 45091  53.0004 266.0049 0000561  77.1605 282.9446 15.05605360 34203
STARLINK-1137           
1 45092U 20006BA  20251.91667824  .00035975  00000-0  24763-2 0  9994
2 45092  52.9961 264.3583 0000925  89.7515  72.8251 15.05569630  1765
STARLINK-1142           
1 45093U 20006BB  20251.91667824  .00053486  00000-0  36641-2 0  9990
2 45093  52.9987 264.3547 0001263 103.6181  76.8460 15.05561678 34604
STARLINK-1146           
1 45094U 20006BC  20251.91667824  .00061459  00000-0  42032-2 0  9991
2 45094  53.0004 264.3338 0001152 103.9434   4.5433 15.05556985 34610
